{"type": "FeatureCollection", "features": [ {"type": "Feature", "properties": {"norad_id": 43107, "name": "BEIDOU-3 M7 (C27)", "group": "gnss", "lat": -31.967816931973385, "lon": -78.02090047687001, "alt_km": 21534.35193052249, "timestamp": "2025-12-23T16:57:12.594317+00:00", "meta": {"OBJECT_NAME": "BEIDOU-3 M7 (C27)", "OBJECT_ID": "2018-003A", "EPOCH": "2025-12-22T03:44:43.463904", "MEAN_MOTION": 1.86232634, "ECCENTRICITY": 0.00029638, "INCLINATION": 54.4883, "RA_OF_ASC_NODE": 308.4878, "ARG_OF_PERICENTER": 66.6968, "MEAN_ANOMALY": 293.333, "EPHEMERIS_TYPE": 0, "CLASSIFICATION_TYPE": "U", "NORAD_CAT_ID": 43107, "ELEMENT_SET_NO": 999, "REV_AT_EPOCH": 5405, "BSTAR": 0, "MEAN_MOTION_DOT": -5.9e-07, "MEAN_MOTION_DDOT": 0}, "tle": {"line1": "1 43107U 18003A   25356.15605861 -.00000059  00000+0  00000+0 0  9993", "line2": "2 43107  54.4883 308.4878 0002963  66.6968 293.3330  1.86232634 54050"}}, "geometry": {"type": "Point", "coordinates": [-78.02090047687001, -31.967816931973385]}}, {"type": "Feature", "properties": {"norad_id": 43108, "name": "BEIDOU-3 M8 (C28)", "group": "gnss", "lat": -3.004261365776453, "lon": -53.74932247748863, "alt_km": 21525.871013022588, "timestamp": "2025-12-23T16:57:12.594331+00:00", "meta": {"OBJECT_NAME": "BEIDOU-3 M8 (C28)", "OBJECT_ID": "2018-003B", "EPOCH": "2025-12-23T04:11:55.355136", "MEAN_MOTION": 1.86231118, "ECCENTRICITY": 0.00045869, "INCLINATION": 54.4802, "RA_OF_ASC_NODE": 308.4348, "ARG_OF_PERICENTER": 278.9101, "MEAN_ANOMALY": 81.0404, "EPHEMERIS_TYPE": 0, "CLASSIFICATION_TYPE": "U", "NORAD_CAT_ID": 43108, "ELEMENT_SET_NO": 999, "REV_AT_EPOCH": 5408, "BSTAR": 0, "MEAN_MOTION_DOT": -5.5e-07, "MEAN_MOTION_DDOT": 0}, "tle": {"line1": "1 43108U 18003B   25357.17494624 -.00000055  00000+0  00000+0 0  9996", "line2": "2 43108  54.4802 308.4348 0004586 278.9101  81.0404  1.86231118 54087"}}, "geometry": {"type": "Point", "coordinates": [-53.74932247748863, -3.004261365776453]}}, {"type": "Feature", "properties": {"norad_id": 43207, "name": "BEIDOU-3 M4 (C22)", "group": "gnss", "lat": 46.25036476453252, "lon": 112.67651577717058, "alt_km": 21516.07422880488, "timestamp": "2025-12-23T16:57:12.594342+00:00", "meta": {"OBJECT_NAME": "BEIDOU-3 M4 (C22)", "OBJECT_ID": "2018-018A", "EPOCH": "2025-12-22T00:08:46.770432", "MEAN_MOTION": 1.86231216, "ECCENTRICITY": 0.00041705, "INCLINATION": 56.4932, "RA_OF_ASC_NODE": 68.9979, "ARG_OF_PERICENTER": 3.572, "MEAN_ANOMALY": 356.4799, "EPHEMERIS_TYPE": 0, "CLASSIFICATION_TYPE": "U", "NORAD_CAT_ID": 43207, "ELEMENT_SET_NO": 999, "REV_AT_EPOCH": 5344, "BSTAR": 0, "MEAN_MOTION_DOT": -3.1e-07, "MEAN_MOTION_DDOT": 0}, "tle": {"line1": "1 43207U 18018A   25356.00609688 -.00000031  00000+0  00000+0 0  9995", "line2": "2 43207  56.4932  68.9979 0004170   3.5720 356.4799  1.86231216 53443"}}, "geometry": {"type": "Point", "coordinates": [112.67651577717058, 46.25036476453252]}}, {"type": "Feature", "properties": {"norad_id": 43208, "name": "BEIDOU-3 M3 (C21)", "group": "gnss", "lat": 12.781952239380377, "lon": 77.59667269207517, "alt_km": 21517.27354337558, "timestamp": "2025-12-23T16:57:12.594362+00:00", "meta": {"OBJECT_NAME": "BEIDOU-3 M3 (C21)", "OBJECT_ID": "2018-018B", "EPOCH": "2025-12-22T14:37:45.965856", "MEAN_MOTION": 1.86231405, "ECCENTRICITY": 0.00070517, "INCLINATION": 56.4931, "RA_OF_ASC_NODE": 68.9821, "ARG_OF_PERICENTER": 313.7983, "MEAN_ANOMALY": 46.1946, "EPHEMERIS_TYPE": 0, "CLASSIFICATION_TYPE": "U", "NORAD_CAT_ID": 43208, "ELEMENT_SET_NO": 999, "REV_AT_EPOCH": 5345, "BSTAR": 0, "MEAN_MOTION_DOT": -2.7e-07, "MEAN_MOTION_DDOT": 0}, "tle": {"line1": "1 43208U 18018B   25356.60955979 -.00000027  00000+0  00000+0 0  9994", "line2": "2 43208  56.4931  68.9821 0007051 313.7983  46.1946  1.86231405 53455"}}, "geometry": {"type": "Point", "coordinates": [77.59667269207517, 12.781952239380377]}}, {"type": "Feature", "properties": {"norad_id": 43245, "name": "BEIDOU-3 M9 (C29)", "group": "gnss", "lat": -38.758370763851055, "lon": 161.19643665079363, "alt_km": 21530.81214581069, "timestamp": "2025-12-23T16:57:12.594379+00:00", "meta": {"OBJECT_NAME": "BEIDOU-3 M9 (C29)", "OBJECT_ID": "2018-029A", "EPOCH": "2025-12-21T18:02:44.382048", "MEAN_MOTION": 1.8622836, "ECCENTRICITY": 0.00015407, "INCLINATION": 54.3576, "RA_OF_ASC_NODE": 306.1541, "ARG_OF_PERICENTER": 290.4225, "MEAN_ANOMALY": 69.56, "EPHEMERIS_TYPE": 0, "CLASSIFICATION_TYPE": "U", "NORAD_CAT_ID": 43245, "ELEMENT_SET_NO": 999, "REV_AT_EPOCH": 5259, "BSTAR": 0, "MEAN_MOTION_DOT": -5.9e-07, "MEAN_MOTION_DDOT": 0}, "tle": {"line1": "1 43245U 18029A   25355.75190257 -.00000059  00000+0  00000+0 0  9997", "line2": "2 43245  54.3576 306.1541 0001540 290.4225  69.5600  1.86228360 52597"}}, "geometry": {"type": "Point", "coordinates": [161.19643665079363, -38.758370763851055]}}, {"type": "Feature", "properties": {"norad_id": 43246, "name": "BEIDOU-3 M10 (C30)", "group": "gnss", "lat": -54.1921907096644, "lon": -137.42934417544888, "alt_km": 21533.912406362142, "timestamp": "2025-12-23T16:57:12.594394+00:00", "meta": {"OBJECT_NAME": "BEIDOU-3 M10 (C30)", "OBJECT_ID": "2018-029B", "EPOCH": "2025-12-22T05:22:40.236384", "MEAN_MOTION": 1.86229249, "ECCENTRICITY": 0.0004309, "INCLINATION": 54.3545, "RA_OF_ASC_NODE": 306.1644, "ARG_OF_PERICENTER": 3.3076, "MEAN_ANOMALY": 356.6961, "EPHEMERIS_TYPE": 0, "CLASSIFICATION_TYPE": "U", "NORAD_CAT_ID": 43246, "ELEMENT_SET_NO": 999, "REV_AT_EPOCH": 5258, "BSTAR": 0, "MEAN_MOTION_DOT": -5.7e-07, "MEAN_MOTION_DDOT": 0}, "tle": {"line1": "1 43246U 18029B   25356.22407681 -.00000057  00000+0  00000+0 0  9991", "line2": "2 43246  54.3545 306.1644 0004309   3.3076 356.6961  1.86229249 52585"}}, "geometry": {"type": "Point", "coordinates": [-137.42934417544888, -54.1921907096644]}}, {"type": "Feature", "properties": {"norad_id": 43286, "name": "IRNSS-1I", "group": "gnss", "lat": -16.239558468492586, "lon": 45.52920953423209, "alt_km": 35855.377883453206, "timestamp": "2025-12-23T16:57:12.594406+00:00", "meta": {"OBJECT_NAME": "IRNSS-1I", "OBJECT_ID": "2018-035A", "EPOCH": "2025-12-20T19:47:21.482880", "MEAN_MOTION": 1.00273791, "ECCENTRICITY": 0.0021634, "INCLINATION": 29.167, "RA_OF_ASC_NODE": 76.974, "ARG_OF_PERICENTER": 186.9634, "MEAN_ANOMALY": 177.5378, "EPHEMERIS_TYPE": 0, "CLASSIFICATION_TYPE": "U", "NORAD_CAT_ID": 43286, "ELEMENT_SET_NO": 999, "REV_AT_EPOCH": 2829, "BSTAR": 0, "MEAN_MOTION_DOT": 8.3e-07, "MEAN_MOTION_DDOT": 0}, "tle": {"line1": "1 43286U 18035A   25354.82455420  .00000083  00000+0  00000+0 0  9998", "line2": "2 43286  29.1670  76.9740 0021634 186.9634 177.5378  1.00273791 28295"}}, "geometry": {"type": "Point", "coordinates": [45.52920953423209, -16.239558468492586]}}, {"type": "Feature", "properties": {"norad_id": 43508, "name": "COSMOS 2527 (756)", "group": "gnss", "lat": 64.79999474684557, "lon": -175.80510620239528, "alt_km": 19138.142220476606, "timestamp": "2025-12-23T16:57:12.594418+00:00", "meta": {"OBJECT_NAME": "COSMOS 2527 (756)", "OBJECT_ID": "2018-053A", "EPOCH": "2025-12-23T02:40:53.485824", "MEAN_MOTION": 2.13102391, "ECCENTRICITY": 0.00089977, "INCLINATION": 65.4775, "RA_OF_ASC_NODE": 79.785, "ARG_OF_PERICENTER": 227.5336, "MEAN_ANOMALY": 132.4355, "EPHEMERIS_TYPE": 0, "CLASSIFICATION_TYPE": "U", "NORAD_CAT_ID": 43508, "ELEMENT_SET_NO": 999, "REV_AT_EPOCH": 5852, "BSTAR": 0, "MEAN_MOTION_DOT": 1e-08, "MEAN_MOTION_DDOT": 0}, "tle": {"line1": "1 43508U 18053A   25357.11173016  .00000001  00000+0  00000+0 0  9998", "line2": "2 43508  65.4775  79.7850 0008997 227.5336 132.4355  2.13102391 58528"}}, "geometry": {"type": "Point", "coordinates": [-175.80510620239528, 64.79999474684557]}}, {"type": "Feature", "properties": {"norad_id": 43539, "name": "BEIDOU-2 IGSO-7 (C16)", "group": "gnss", "lat": -48.86504716630952, "lon": 111.63705875688335, "alt_km": 35587.798766507796, "timestamp": "2025-12-23T16:57:12.594430+00:00", "meta": {"OBJECT_NAME": "BEIDOU-2 IGSO-7 (C16)", "OBJECT_ID": "2018-057A", "EPOCH": "2025-12-15T07:47:07.120608", "MEAN_MOTION": 1.00256546, "ECCENTRICITY": 0.00926218, "INCLINATION": 55.1766, "RA_OF_ASC_NODE": 164.6485, "ARG_OF_PERICENTER": 235.2644, "MEAN_ANOMALY": 271.8458, "EPHEMERIS_TYPE": 0, "CLASSIFICATION_TYPE": "U", "NORAD_CAT_ID": 43539, "ELEMENT_SET_NO": 999, "REV_AT_EPOCH": 2728, "BSTAR": 0, "MEAN_MOTION_DOT": -2.3e-07, "MEAN_MOTION_DDOT": 0}, "tle": {"line1": "1 43539U 18057A   25349.32438797 -.00000023  00000+0  00000+0 0  9995", "line2": "2 43539  55.1766 164.6485 0092621 235.2644 271.8458  1.00256546 27289"}}, "geometry": {"type": "Point", "coordinates": [111.63705875688335, -48.86504716630952]}}, {"type": "Feature", "properties": {"norad_id": 43564, "name": "GSAT0221 (GALILEO 25)", "group": "gnss", "lat": 15.668972994359505, "lon": -3.0791962809760784, "alt_km": 23221.045237554496, "timestamp": "2025-12-23T16:57:12.594448+00:00", "meta": {"OBJECT_NAME": "GSAT0221 (GALILEO 25)", "OBJECT_ID": "2018-060A", "EPOCH": "2025-12-23T02:08:34.035648", "MEAN_MOTION": 1.70475773, "ECCENTRICITY": 0.00067192, "INCLINATION": 57.2255, "RA_OF_ASC_NODE": 346.5383, "ARG_OF_PERICENTER": 286.3445, "MEAN_ANOMALY": 73.589, "EPHEMERIS_TYPE": 0, "CLASSIFICATION_TYPE": "U", "NORAD_CAT_ID": 43564, "ELEMENT_SET_NO": 999, "REV_AT_EPOCH": 4616, "BSTAR": 0, "MEAN_MOTION_DOT": -6.3e-07, "MEAN_MOTION_DDOT": 0}, "tle": {"line1": "1 43564U 18060A   25357.08928282 -.00000063  00000+0  00000+0 0  9996", "line2": "2 43564  57.2255 346.5383 0006719 286.3445  73.5890  1.70475773 46167"}}, "geometry": {"type": "Point", "coordinates": [-3.0791962809760784, 15.668972994359505]}}]}